NORAD_CAT_ID,OBJECT_NAME,OBJECT_TYPE,EPOCH,MEAN_MOTION,ECCENTRICITY,INCLINATION,RA_OF_ASC_NODE,ARG_OF_PERICENTER,MEAN_ANOMALY,BSTAR,MEAN_MOTION_DOT,MEAN_MOTION_DDOT,TLE_LINE0,TLE_LINE1,TLE_LINE2,SEMIMAJOR_AXIS,PERIOD,APOGEE,PERIGEE,DECAYED
52557.0,STARLINK-3943,PAYLOAD,2022-09-24 15:29:18,15.08831046,0.0001662,53.2209,34.6517,61.2347,298.8812,-3.9133e-05,-9.11e-06,0.0,0 STARLINK-3943,1 52557U 22051AA  22267.64535864 -.00000911  00000-0 -39133-4 0  9990,2 52557  53.2209  34.6517 0001662  61.2347 298.8812 15.08831046 20928,6917.908,95.438,540.923,538.623,0.0
52557.0,STARLINK-3943,PAYLOAD,2022-09-25 12:09:18,15.08848184,0.0001703,53.2209,30.7862,58.9417,301.1743,6.0392e-06,-1.92e-06,0.0,0 STARLINK-3943,1 52557U 22051AA  22268.50646961 -.00000192  00000-0  60392-5 0  9999,2 52557  53.2209  30.7862 0001703  58.9417 301.1743 15.08848184 21052,6917.855,95.437,540.898,538.5419999999998,0.0
52557.0,STARLINK-3943,PAYLOAD,2022-09-25 15:20:05,15.08844955,0.0001704,53.221,30.1914,60.2112,299.9049,0.00011253,1.504e-05,0.0,0 STARLINK-3943,1 52557U 22051AA  22268.63894874  .00001504  00000-0  11253-3 0  9998,2 52557  53.2210  30.1914 0001704  60.2112 299.9049 15.08844955 21072,6917.865,95.437,540.909,538.5509999999998,0.0
52557.0,STARLINK-3943,PAYLOAD,2022-09-26 04:03:11,15.08828692,0.0001791,53.2209,27.8128,59.7875,300.3294,0.00013016,1.783e-05,0.0,0 STARLINK-3943,1 52557U 22051AA  22269.16887747  .00001783  00000-0  13016-3 0  9996,2 52557  53.2209  27.8128 0001791  59.7875 300.3294 15.08828692 21221,6917.915,95.438,541.019,538.5409999999998,0.0
52557.0,STARLINK-3943,PAYLOAD,2022-09-26 10:24:44,15.08828835,0.0001718,53.2206,26.6229,60.4545,299.6618,-7.1902e-05,-1.432e-05,0.0,0 STARLINK-3943,1 52557U 22051AA  22269.43384751 -.00001432  00000-0 -71902-4 0  9995,2 52557  53.2206  26.6229 0001718  60.4545 299.6618 15.08828835 21262,6917.915,95.438,540.9680000000002,538.591,0.0
52557.0,STARLINK-3943,PAYLOAD,2022-09-26 15:10:53,15.08825456,0.0001721999999999,53.2206,25.7311,60.6183,299.4981,1.1445999999999997e-05,-1.06e-06,0.0,0 STARLINK-3943,1 52557U 22051AA  22269.63256837 -.00000106  00000-0  11446-4 0  9993,2 52557  53.2206  25.7311 0001722  60.6183 299.4981 15.08825456 21222,6917.925,95.438,540.981,538.599,0.0
52557.0,STARLINK-3943,PAYLOAD,2022-09-27 11:50:54,15.08841822,0.0001716,53.2211,21.8658,55.5679,304.5475,3.9002e-05,3.33e-06,0.0,0 STARLINK-3943,1 52557U 22051AA  22270.49368225  .00000333  00000-0  39002-4 0  9993,2 52557  53.2211  21.8658 0001716  55.5679 304.5475 15.08841822 21428,6917.875,95.437,540.927,538.553,0.0
52557.0,STARLINK-3943,PAYLOAD,2022-09-28 03:44:43,15.08858069,0.0001608,53.221,18.8915,55.567,304.5474,0.00033121,4.99e-05,0.0,0 STARLINK-3943,1 52557U 22051AA  22271.15606000  .00004990  00000-0  33121-3 0  9991,2 52557  53.2210  18.8915 0001608  55.5670 304.5474 15.08858069 21521,6917.825,95.436,540.803,538.578,0.0
52557.0,STARLINK-3943,PAYLOAD,2022-09-28 13:17:03,15.08843296,0.0001754999999999,53.2207,17.1077,55.8626,304.2532,0.0001844,2.648e-05,0.0,0 STARLINK-3943,1 52557U 22051AA  22271.55351359  .00002648  00000-0  18440-3 0  9994,2 52557  53.2207  17.1077 0001755  55.8626 304.2532 15.08843296 21589,6917.87,95.437,540.9490000000002,538.521,0.0
52557.0,STARLINK-3943,PAYLOAD,2022-09-29 13:07:50,15.08843714,0.0001714,53.2212,12.6492,55.113,305.0023,3.997300000000001e-05,3.48e-06,0.0,0 STARLINK-3943,1 52557U 22051AA  22272.54711624  .00000348  00000-0  39973-4 0  9999,2 52557  53.2212  12.6492 0001714  55.1130 305.0023 15.08843714 21730,6917.869000000002,95.437,540.92,538.548,0.0
52557.0,STARLINK-3943,PAYLOAD,2022-09-30 12:58:37,15.08855676,0.0001631,53.2215,8.189,52.4587,307.6554,-5.5491e-05,-1.171e-05,0.0,0 STARLINK-3943,1 52557U 22051AA  22273.54070753 -.00001171  00000-0 -55491-4 0  9991,2 52557  53.2215   8.1890 0001631  52.4587 307.6554 15.08855676 21815,6917.831999999999,95.437,540.826,538.569,0.0
52557.0,STARLINK-3943,PAYLOAD,2022-09-30 16:09:23,15.08849195,0.0001643,53.2213,7.5939999999999985,54.7113,305.4033,0.00013667,1.888e-05,0.0,0 STARLINK-3943,1 52557U 22051AA  22273.67318694  .00001888  00000-0  13667-3 0  9995,2 52557  53.2213   7.5940 0001643  54.7113 305.4033 15.08849195 21834,6917.852,95.437,540.854,538.581,0.0
52557.0,STARLINK-3943,PAYLOAD,2022-10-01 12:49:24,15.08837325,0.0001647,53.2213,3.7282,50.8145,309.2994,7.9117e-05,9.71e-06,0.0,0 STARLINK-3943,1 52557U 22051AA  22274.53431480  .00000971  00000-0  79117-4 0  9995,2 52557  53.2213   3.7282 0001647  50.8145 309.2994 15.08837325 21961,6917.889,95.438,540.893,538.614,0.0
52557.0,STARLINK-3943,PAYLOAD,2022-10-02 12:40:12,15.08837117,0.0001639,53.2207,359.2689,55.0503,305.0643,4.877e-05,4.88e-06,0.0,0 STARLINK-3943,1 52557U 22051AA  22275.52792443  .00000488  00000-0  48770-4 0  9998,2 52557  53.2207 359.2689 0001639  55.0503 305.0643 15.08837117 22189,6917.889,95.438,540.888,538.62,0.0
52557.0,STARLINK-3943,PAYLOAD,2022-10-02 15:50:58,15.08842013,0.0001702,53.221,358.6741,54.3551,305.76,2.635300000000001e-05,1.31e-06,0.0,0 STARLINK-3943,1 52557U 22051AA  22275.66040243  .00000131  00000-0  26353-4 0  9995,2 52557  53.2210 358.6741 0001702  54.3551 305.7600 15.08842013 22137,6917.874,95.437,540.9169999999998,538.562,0.0
52557.0,STARLINK-3943,PAYLOAD,2022-10-02 22:12:30,15.08850022,0.0001718,53.2216,357.4852,56.912,303.2037,8.303299999999999e-05,1.034e-05,0.0,0 STARLINK-3943,1 52557U 22051AA  22275.92535577  .00001034  00000-0  83033-4 0  9994,2 52557  53.2216 357.4852 0001718  56.9120 303.2037 15.08850022 22248,6917.85,95.437,540.903,538.526,0.0
52557.0,STARLINK-3943,PAYLOAD,2022-10-03 12:30:58,15.08852238,0.0001679,53.2204,354.8088,53.1909,306.9237,0.00032923,4.957e-05,0.0,0 STARLINK-3943,1 52557U 22051AA  22276.52151278  .00004957  00000-0  32923-3 0  9991,2 52557  53.2204 354.8088 0001679  53.1909 306.9237 15.08852238 22262,6917.843000000003,95.437,540.869,538.5459999999998,0.0
52557.0,STARLINK-3943,PAYLOAD,2022-10-03 15:41:44,15.08856196,0.0001701,53.2205,354.2138,51.0451,309.0693,0.00037623,5.707e-05,0.0,0 STARLINK-3943,1 52557U 22051AA  22276.65399075  .00005707  00000-0  37623-3 0  9990,2 52557  53.2205 354.2138 0001701  51.0451 309.0693 15.08856196 22287,6917.831,95.437,540.873,538.519,0.0
52557.0,STARLINK-3943,PAYLOAD,2022-10-03 23:38:40,15.08860264,0.0001726,53.2204,352.7273,51.8064,308.3083,0.00050588,7.777e-05,0.0,0 STARLINK-3943,1 52557U 22051AA  22276.98518820  .00007777  00000-0  50588-3 0  9991,2 52557  53.2204 352.7273 0001726  51.8064 308.3083 15.08860264 22404,6917.818,95.436,540.877,538.489,0.0
52557.0,STARLINK-3943,PAYLOAD,2022-10-04 12:21:45,15.08845113,0.000168,53.2211,350.3475,54.1413,305.9735,5.539100000000001e-05,5.94e-06,0.0,0 STARLINK-3943,1 52557U 22051AA  22277.51511145  .00000594  00000-0  55391-4 0  9992,2 52557  53.2211 350.3475 0001680  54.1413 305.9735 15.08845113 22417,6917.865,95.437,540.8919999999998,538.568,0.0
52557.0,STARLINK-3943,PAYLOAD,2022-10-05 10:37:09,15.08844487,0.0001673,53.2201,346.1858,53.0922,307.0223,-5.5043e-05,-1.164e-05,0.0,0 STARLINK-3943,1 52557U 22051AA  22278.44246867 -.00001164  00000-0 -55043-4 0  9991,2 52557  53.2201 346.1858 0001673  53.0922 307.0223 15.08844487 22552,6917.8669999999975,95.437,540.889,538.5740000000002,0.0
52557.0,STARLINK-3943,PAYLOAD,2022-10-05 23:20:14,15.08839813,0.0001761,53.2196,343.8072,54.3884,305.7272,-0.00011404,-2.103e-05,0.0,0 STARLINK-3943,1 52557U 22051AA  22278.97239190 -.00002103  00000-0 -11404-3 0  9996,2 52557  53.2196 343.8072 0001761  54.3884 305.7272 15.08839813 22709,6917.880999999999,95.438,540.964,538.528,0.0
52557.0,STARLINK-3943,PAYLOAD,2022-10-06 12:03:20,15.08838528,0.0001705,53.2199,341.4284,53.3274,306.7875,0.00012924,1.769e-05,0.0,0 STARLINK-3943,1 52557U 22051AA  22279.50231599  .00001769  00000-0  12924-3 0  9994,2 52557  53.2199 341.4284 0001705  53.3274 306.7875 15.08838528 22714,6917.885,95.438,540.929,538.57,0.0
52557.0,STARLINK-3943,PAYLOAD,2022-10-07 03:57:11,15.08836995,0.0001745,53.2203,338.4564,48.9241,311.1902,0.00021691,3.165e-05,0.0,0 STARLINK-3943,1 52557U 22051AA  22280.16471854  .00003165  00000-0  21691-3 0  9991,2 52557  53.2203 338.4564 0001745  48.9241 311.1902 15.08836995 22880,6917.89,95.438,540.962,538.547,0.0
52557.0,STARLINK-3943,PAYLOAD,2022-10-07 10:18:44,15.08846472,0.0001789,53.2197,337.266,52.8889,307.2267,0.00037878,5.746e-05,0.0,0 STARLINK-3943,1 52557U 22051AA  22280.42967683  .00005746  00000-0  37878-3 0  9991,2 52557  53.2197 337.2660 0001789  52.8889 307.2267 15.08846472 22854,6917.861,95.437,540.9630000000002,538.488,0.0
52557.0,STARLINK-3943,PAYLOAD,2022-10-08 10:09:30,15.08850895,0.0001776999999999,53.2195,332.8059,55.7533,304.3627,0.00057318,8.849e-05,0.0,0 STARLINK-3943,1 52557U 22051AA  22281.42327345  .00008849  00000-0  57318-3 0  9995,2 52557  53.2195 332.8059 0001777  55.7533 304.3627 15.08850895 23000,6917.847,95.437,540.941,538.4830000000002,0.0
52557.0,STARLINK-3943,PAYLOAD,2022-10-09 05:14:09,15.0883709,0.0001747,53.2195,329.2378,51.8078,308.3071,0.00018504,2.658e-05,0.0,0 STARLINK-3943,1 52557U 22051AA  22282.21816051  .00002658  00000-0  18504-3 0  9996,2 52557  53.2195 329.2378 0001747  51.8078 308.3071 15.08837090 23191,6917.889,95.438,540.9630000000002,538.5459999999998,0.0
52557.0,STARLINK-3943,PAYLOAD,2022-10-09 10:00:18,15.08841934,0.0001788,53.2195,328.3457,50.4406,309.6744,0.00024927,3.681e-05,0.0,0 STARLINK-3943,1 52557U 22051AA  22282.41688018  .00003681  00000-0  24927-3 0  9991,2 52557  53.2195 328.3457 0001788  50.4406 309.6744 15.08841934 23153,6917.874,95.437,540.976,538.503,0.0
52557.0,STARLINK-3943,PAYLOAD,2022-10-09 19:32:37,15.08836616,0.0001819,53.2193,326.5617,50.7025,309.4128,0.00014484,2.018e-05,0.0,0 STARLINK-3943,1 52557U 22051AA  22282.81432367  .00002018  00000-0  14484-3 0  9999,2 52557  53.2193 326.5617 0001819  50.7025 309.4128 15.08836616 23216,6917.891,95.438,541.014,538.497,0.0
